0 FENGYUN 1C DEB
1 36162U 99025DSK 13287.39831062  .00002007  00000-0  15372-2 0  2167
2 36162 097.6286 148.1617 0349284 247.0083 109.4052 13.69099443294026
0 FENGYUN 1C DEB
1 36162U 99025DSK 13291.41781904  .00002176  00000-0  16636-2 0  2176
2 36162 097.6277 151.3565 0349256 236.0073 120.7768 13.69118850294574
0 FENGYUN 1C DEB
1 36162U 99025DSK 13291.85630263  .00002487  00000-0  18999-2 0  2185
2 36162 097.6268 151.7035 0348686 234.9562 121.8820 13.69125435294631
0 FENGYUN 1C DEB
1 36162U 99025DSK 13295.87575127  .00002599  00000-0  19850-2 0  2190
2 36162 097.6270 154.8948 0348390 223.9404 133.3698 13.69147909295188
